NORAD_CAT_ID,OBJECT_NAME,OBJECT_TYPE,EPOCH,MEAN_MOTION,ECCENTRICITY,INCLINATION,RA_OF_ASC_NODE,ARG_OF_PERICENTER,MEAN_ANOMALY,BSTAR,MEAN_MOTION_DOT,MEAN_MOTION_DDOT,TLE_LINE0,TLE_LINE1,TLE_LINE2,SEMIMAJOR_AXIS,PERIOD,APOGEE,PERIGEE,DECAYED
50832.0,STARLINK-3328,PAYLOAD,2023-09-04 06:00:00,15.07198063,0.0001294,53.2166,337.6792,103.4126,45.5269,0.001062,0.00015916,0.0,0 STARLINK-3328,1 50832U 22001AF  23247.25001157  .00015916  00000-0  10620-2 0  9995,2 50832  53.2166 337.6792 0001294 103.4126  45.5269 15.07198063 93017,6922.904,95.542,545.665,543.873,0.0
50832.0,STARLINK-3328,PAYLOAD,2023-09-04 14:00:01,15.07200646,0.0001295,53.2163,336.1884,86.6731,71.9051,-0.0013548,-0.00020843,0.0,0 STARLINK-3328,1 50832U 22001AF  23247.58334491 -.00020843  00000-0 -13548-2 0  9990,2 50832  53.2163 336.1884 0001295  86.6731  71.9051 15.07200646  5651,6922.896,95.541,545.657,543.864,0.0
50832.0,STARLINK-3328,PAYLOAD,2023-09-04 22:00:00,15.07203221,0.0001239,53.2158,334.6947,87.6896,80.5025,-0.0012877,-0.00019829,0.0,0 STARLINK-3328,1 50832U 22001AF  23247.91667824 -.00019829  00000-0 -12877-2 0  9992,2 50832  53.2158 334.6947 0001239  87.6896  80.5025 15.07203221 93116,6922.888,95.541,545.611,543.895,0.0
50832.0,STARLINK-3328,PAYLOAD,2023-09-05 14:00:01,15.07198314,0.0001326,53.2157,331.7106,80.9049,106.5393,-0.00011216,-1.99e-05,0.0,0 STARLINK-3328,1 50832U 22001AF  23248.58334491 -.00001990  00000-0 -11216-3 0  9994,2 50832  53.2157 331.7106 0001326  80.9049 106.5393 15.07198314 93217,6922.903,95.542,545.686,543.85,0.0
50832.0,STARLINK-3328,PAYLOAD,2023-09-06 06:00:00,15.07215218,0.0001349,53.2156,328.7235,88.8732,117.8287,0.0017254,0.00026085,0.0,0 STARLINK-3328,1 50832U 22001AF  23249.25001157  .00026085  00000-0  17254-2 0  9996,2 50832  53.2156 328.7235 0001349  88.8732 117.8287 15.07215218 93317,6922.851,95.54,545.65,543.782,0.0
50832.0,STARLINK-3328,PAYLOAD,2023-09-06 14:00:01,15.07126919,0.0001347,53.2155,327.2324,76.2189,140.1566,0.019462,0.00308581,0.0,0 STARLINK-3328,1 50832U 22001AF  23249.58334491  .00308581  00000-0  19462-1 0  9998,2 50832  53.2155 327.2324 0001347  76.2189 140.1566 15.07126919  5854,6923.122,95.546,545.919,544.054,0.0
50832.0,STARLINK-3328,PAYLOAD,2023-09-06 22:00:00,15.07355606,0.000128,53.2154,325.7383,82.7999,143.2179,0.030916,0.00501754,0.0,0 STARLINK-3328,1 50832U 22001AF  23249.91667824  .00501754  00000-0  30916-1 0  9998,2 50832  53.2154 325.7383 0001280  82.7999 143.2179 15.07355606 93418,6922.421,95.532,545.172,543.4,0.0
50832.0,STARLINK-3328,PAYLOAD,2023-09-06 22:35:32,15.0724303,2.94e-05,53.2182,325.6286,152.0214,208.0793,0.00043554,6.36e-05,0.0,0 STARLINK-3328,1 50832U 22001AF  23249.94135175  .00006360  00000-0  43554-3 0  9997,2 50832  53.2182 325.6286 0000294 152.0214 208.0793 15.07243030 93425,6922.766,95.539,544.835,544.427,0.0
50832.0,STARLINK-3328,PAYLOAD,2023-09-07 09:43:41,15.07440356,0.0001689,53.2192,323.5485,62.0134,298.1029,0.0020624,0.00031452,0.0,0 STARLINK-3328,1 50832U 22001AF  23250.40533709  .00031452  00000-0  20624-2 0  9997,2 50832  53.2192 323.5485 0001689  62.0134 298.1029 15.07440356 92245,6922.162,95.526,545.196,542.858,0.0
50832.0,STARLINK-3328,PAYLOAD,2023-09-07 17:40:52,15.07764391,0.0001187,53.2158,322.0622,153.7942,206.3109,0.0070527,0.00110428,0.0,0 STARLINK-3328,1 50832U 22001AF  23250.73671867  .00110428  00000-0  70527-2 0  9999,2 50832  53.2158 322.0622 0001187 153.7942 206.3109 15.07764391 93544,6921.17,95.506,543.857,542.214,0.0
50832.0,STARLINK-3328,PAYLOAD,2023-09-07 20:51:43,15.07850398,0.0001482,53.216,321.4679,172.4527,187.6487,0.0078796,0.00123935,0.0,0 STARLINK-3328,1 50832U 22001AF  23250.86925556  .00123935  00000-0  78796-2 0  9993,2 50832  53.2160 321.4679 0001482 172.4527 187.6487 15.07850398 92314,6920.907,95.5,543.798,541.746,0.0
50832.0,STARLINK-3328,PAYLOAD,2023-09-07 22:27:09,15.07893659,8.93e-05,53.2155,321.1709,146.891,213.2137,0.0082894,0.00130675,0.0,0 STARLINK-3328,1 50832U 22001AF  23250.93552385  .00130675  00000-0  82894-2 0  9990,2 50832  53.2155 321.1709 0000893 146.8910 213.2137 15.07893659 93579,6920.774,95.497,543.258,542.021,0.0
50832.0,STARLINK-3328,PAYLOAD,2023-09-08 11:10:23,15.08292456,0.0001367,53.2175,318.7937,178.9221,181.1774,0.010987,0.00176324,0.0,0 STARLINK-3328,1 50832U 22001AF  23251.46555014  .00176324  00000-0  10987-1 0  9995,2 50832  53.2175 318.7937 0001367 178.9221 181.1774 15.08292456 93652,6919.555,95.472,542.365,540.474,0.0
50832.0,STARLINK-3328,PAYLOAD,2023-09-08 22:00:00,15.0884058,0.0001925,53.2163,316.7676,138.4297,153.0741,-0.0011113,-0.00017932,0.0,0 STARLINK-3328,1 50832U 22001AF  23251.91667824 -.00017932  00000-0 -11113-2 0  9992,2 50832  53.2163 316.7676 0001925 138.4297 153.0741 15.08840580  5901,6917.879,95.438,541.075,538.412,0.0
50832.0,STARLINK-3328,PAYLOAD,2023-09-09 14:00:01,15.08820822,0.0001656,53.2164,313.7763,128.3092,186.3813,0.0010906,0.00017102,0.0,0 STARLINK-3328,1 50832U 22001AF  23252.58334491  .00017102  00000-0  10906-2 0  9993,2 50832  53.2164 313.7763 0001656 128.3092 186.3813 15.08820822  5814,6917.939,95.439,540.95,538.658,0.0
50832.0,STARLINK-3328,PAYLOAD,2023-09-09 22:00:00,15.08832612,0.0001672,53.2165,312.2784,133.0646,193.2141,0.00051912,7.982e-05,0.0,0 STARLINK-3328,1 50832U 22001AF  23252.91667824  .00007982  00000-0  51912-3 0  9997,2 50832  53.2165 312.2784 0001672 133.0646 193.2141 15.08832612 93872,6917.903,95.438,540.925,538.611,0.0
50832.0,STARLINK-3328,PAYLOAD,2023-09-10 14:00:01,15.08824332,0.0001449,53.2163,309.2873,123.8735,225.6099,0.00030434,4.557e-05,0.0,0 STARLINK-3328,1 50832U 22001AF  23253.58334491  .00004557  00000-0  30434-3 0  9993,2 50832  53.2163 309.2873 0001449 123.8735 225.6099 15.08824332  5609,6917.928,95.439,540.796,538.791,0.0
50832.0,STARLINK-3328,PAYLOAD,2023-09-11 06:00:00,15.08850293,0.0001495,53.2163,306.2934,130.0846,242.5474,-0.00097476,-0.00015772,0.0,0 STARLINK-3328,1 50832U 22001AF  23254.25001157 -.00015772  00000-0 -97476-3 0  9990,2 50832  53.2163 306.2934 0001495 130.0846 242.5474 15.08850293 94077,6917.849,95.437,540.748,538.68,0.0
50832.0,STARLINK-3328,PAYLOAD,2023-09-11 14:00:01,15.08815943,0.0001323,53.2158,304.7984,121.1682,263.0704,0.0019741,0.00031249,0.0,0 STARLINK-3328,1 50832U 22001AF  23254.58334491  .00031249  00000-0  19741-2 0  9999,2 50832  53.2158 304.7984 0001323 121.1682 263.0704 15.08815943  5752,6917.954,95.439,540.734,538.904,0.0
50832.0,STARLINK-3328,PAYLOAD,2023-09-12 10:33:38,15.0884456,0.0001555,53.2162,300.9515,130.5467,229.5661,0.00013369,1.841e-05,0.0,0 STARLINK-3328,1 50832U 22001AF  23255.44002467  .00001841  00000-0  13369-3 0  9996,2 50832  53.2162 300.9515 0001555 130.5467 229.5661 15.08844560 94256,6917.866,95.437,540.807,538.656,0.0
50832.0,STARLINK-3328,PAYLOAD,2023-09-12 12:09:01,15.08846389,0.00016,53.2163,300.6541,131.7208,228.3921,0.00016441,2.33e-05,0.0,0 STARLINK-3328,1 50832U 22001AF  23255.50626379  .00002330  00000-0  16441-3 0  9995,2 50832  53.2163 300.6541 0001600 131.7208 228.3921 15.08846389 93010,6917.861,95.437,540.833,538.619,0.0
50832.0,STARLINK-3328,PAYLOAD,2023-09-12 15:19:47,15.08850735,0.0001529,53.2159,300.0589,129.878,230.2346,0.00021953,3.209e-05,0.0,0 STARLINK-3328,1 50832U 22001AF  23255.63874148  .00003209  00000-0  21953-3 0  9998,2 50832  53.2159 300.0589 0001529 129.8780 230.2346 15.08850735 93039,6917.848,95.437,540.77,538.655,0.0
50832.0,STARLINK-3328,PAYLOAD,2023-09-13 10:24:25,15.08849225,0.0001341,53.2164,296.4881,103.8224,256.2918,0.00025097,3.71e-05,0.0,0 STARLINK-3328,1 50832U 22001AF  23256.43362292  .00003710  00000-0  25097-3 0  9999,2 50832  53.2164 296.4881 0001341 103.8224 256.2918 15.08849225 93153,6917.852,95.437,540.645,538.79,0.0
50832.0,STARLINK-3328,PAYLOAD,2023-09-13 15:10:34,15.08853932,0.0001319,53.216,295.5988,109.8729,250.2405,0.00025596,3.79e-05,0.0,0 STARLINK-3328,1 50832U 22001AF  23256.63233942  .00003790  00000-0  25596-3 0  9992,2 50832  53.2160 295.5988 0001319 109.8729 250.2405 15.08853932 94435,6917.838,95.437,540.615,538.79,0.0
50832.0,STARLINK-3328,PAYLOAD,2023-09-13 19:56:44,15.0883816,0.00013,53.2162,294.7072,102.808,257.3058,1.3874e-05,-6.7e-07,0.0,0 STARLINK-3328,1 50832U 22001AF  23256.83106743 -.00000067  00000-0  13874-4 0  9994,2 50832  53.2162 294.7072 0001300 102.8080 257.3058 15.08838160 93218,6917.886,95.438,540.65,538.852,0.0
50832.0,STARLINK-3328,PAYLOAD,2023-09-14 02:18:17,15.0882101,0.0001076,53.215,293.5165,116.4436,243.6667,-0.00029384,-4.959e-05,0.0,0 STARLINK-3328,1 50832U 22001AF  23257.09603309 -.00004959  00000-0 -29384-3 0  9990,2 50832  53.2150 293.5165 0001076 116.4436 243.6667 15.08821010 94504,6917.938,95.439,540.548,539.059,0.0
50832.0,STARLINK-3328,PAYLOAD,2023-09-14 10:15:13,15.08825931,0.0001233,53.2147,292.0286,115.2089,244.9031,-0.00012608,-2.293e-05,0.0,0 STARLINK-3328,1 50832U 22001AF  23257.42723514 -.00002293  00000-0 -12608-3 0  9998,2 50832  53.2147 292.0286 0001233 115.2089 244.9031 15.08825931 93306,6917.923,95.438,540.641,538.935,0.0
50832.0,STARLINK-3328,PAYLOAD,2023-09-14 19:47:32,15.08831176,0.0001178,53.2151,290.2447,109.5018,250.6101,3.7969e-05,3.16e-06,0.0,0 STARLINK-3328,1 50832U 22001AF  23257.82467687  .00000316  00000-0  37969-4 0  9998,2 50832  53.2151 290.2447 0001178 109.5018 250.6101 15.08831176 94611,6917.907,95.438,540.587,538.957,0.0
50832.0,STARLINK-3328,PAYLOAD,2023-09-15 11:41:23,15.08845135,0.0001155,53.215,287.2716,104.9605,255.1515,0.0003854,5.852e-05,0.0,0 STARLINK-3328,1 50832U 22001AF  23258.48707663  .00005852  00000-0  38540-3 0  9997,2 50832  53.2150 287.2716 0001155 104.9605 255.1515 15.08845135 93462,6917.865,95.437,540.529,538.931,0.0
50832.0,STARLINK-3328,PAYLOAD,2023-09-15 13:16:46,15.08845642,0.000121,53.215,286.9745,108.0593,252.0531,0.0006188,9.575e-05,0.0,0 STARLINK-3328,1 50832U 22001AF  23258.55331866  .00009575  00000-0  61880-3 0  9992,2 50832  53.2150 286.9745 0001210 108.0593 252.0531 15.08845642 94720,6917.863,95.437,540.565,538.891,0.0
